{"Hospital":"Advent Health Gordon","Phone Number":"(706) 602-7800","Street":"1035 Red Bud Rd NE","City":" Calhoun","Zip":" 30701","Latitude":34.5117289293,"Longitude":-84.9204318244}
{"Hospital":"Polk Medical Center","Phone Number":"(770) 748-2500","Street":"2360 Rockmart Hwy","City":" Cedartown","Zip":" 30125","Latitude":34.014291,"Longitude":-85.1961955579}
{"Hospital":"Wellstar Paulding Hospital","Phone Number":"(470) 644-7000","Street":"2518 Jimmy Lee Smith Pkwy","City":" Hiram","Zip":" 30141","Latitude":33.90088225,"Longitude":-84.7810234463}
{"Hospital":"Northside - Cherokee Hospital","Phone Number":"(770) 224-1000","Street":"450 Northside Cherokee Blvd","City":" Canton","Zip":" 30115","Latitude":34.22885345,"Longitude":-84.4647116621}
{"Hospital":"Cartersville Medical Ctr","Phone Number":"(470) 490-1000","Street":"960 Joe Frank Harris Pkwy SE","City":" Cartersville","Zip":" 30120","Latitude":34.20080325,"Longitude":-84.7957302314}
{"Hospital":"Piedmont Mountainside","Phone Number":"(706) 692-2441","Street":"1266 GA-515","City":" Jasper","Zip":" 30143","Latitude":34.44646615,"Longitude":-84.4471786199}
{"Hospital":"HCC-C Tanner Higgins","Phone Number":"(770) 812-2000","Street":"200 Allen Memorial Dr","City":" Bremen","Zip":" 30110","Latitude":33.71693155,"Longitude":-85.145084224}
{"Hospital":"Floyd Medical Center","Phone Number":"(706) 509-5000","Street":"304 Turner McCall Blvd","City":" Rome","Zip":" 30161","Latitude":34.25913855,"Longitude":-85.1783506097}
{"Hospital":"Advent Health Murray","Phone Number":"(706) 695-4564","Street":"707 Old Dalton Ellijay Rd","City":" Chatsworth","Zip":" 30705","Latitude":34.7801792,"Longitude":-84.7828514286}
{"Hospital":"Fannin Regional","Phone Number":"(706) 632-3711","Street":"2855 Old Hwy 5 North","City":" Blue Ridge","Zip":" 30513","Latitude":null,"Longitude":null}
{"Hospital":"Redmond Regional Medical Ctr","Phone Number":"(706) 291-0291","Street":"501 Redmond Rd","City":" Rome","Zip":" 30165","Latitude":34.27712245,"Longitude":-85.1961092919}
{"Hospital":"Hamilton Medical Center","Phone Number":"(706) 272-6195","Street":"1200 Memorial Dr","City":" Dalton","Zip":" 30720","Latitude":34.7886079,"Longitude":-84.9840889639}
{"Hospital":"CHI Memorial GA","Phone Number":"(706) 858-2000","Street":"100 Gross Crescent","City":" Fort Oglethorpe","Zip":" 30742","Latitude":34.9468129,"Longitude":-85.262844}
{"Hospital":"Northside - Forsyth Hospital","Phone Number":"(770) 844-3200","Street":"1200 Northside Forsyth Dr","City":" Cumming","Zip":" 30041","Latitude":34.1779101,"Longitude":-84.1409857454}
{"Hospital":"St. Marys Sacred Heart Hospital","Phone Number":"(706) 356-7800","Street":"367 Clear Creek Dr","City":" Lavonia","Zip":" 30553","Latitude":34.4371573,"Longitude":-83.132228}
{"Hospital":"NGMC Lumpkin","Phone Number":"(770) 219-9000","Street":"227 Mountain Dr","City":" Dahlonega","Zip":" 30533","Latitude":34.52281985,"Longitude":-83.9755451426}
{"Hospital":"NGMC Braselton","Phone Number":"(770) 848-8000","Street":"1400 River Place","City":" Braselton","Zip":" 30517","Latitude":null,"Longitude":null}
{"Hospital":"NGMC Gainesville RCH","Phone Number":"(770) 219-9000","Street":"743 Spring Street","City":" Gainesville","Zip":" 30501","Latitude":34.3044194,"Longitude":-83.8162315955}
{"Hospital":"Mountain Lakes Medical Center","Phone Number":"(706) 782-3100","Street":"162 Legacy Point","City":" Clayton","Zip":" 30525","Latitude":null,"Longitude":null}
{"Hospital":"Stephens County Hospital","Phone Number":"(706) 282-4200","Street":"163 Hospital Rd","City":" Toccoa","Zip":" 30577","Latitude":null,"Longitude":null}
{"Hospital":"Habersham Medical Center","Phone Number":"(706) 754-2161","Street":"541 Historic Hwy #441-N","City":" Demorest","Zip":" 30535","Latitude":null,"Longitude":null}
{"Hospital":"Union General Hospital","Phone Number":"(706) 745-2111","Street":"35 Hospital Rd","City":" Blairsville","Zip":" 30512","Latitude":34.88552835,"Longitude":-83.9619224272}
{"Hospital":"Chatuge Regional Hospital","Phone Number":"(706) 896-2222","Street":"110 S Main St","City":" Hiawassee","Zip":" 30546","Latitude":null,"Longitude":null}
{"Hospital":"CHOA - Egleston","Phone Number":"(404) 785-5437","Street":"1405 Clifton Rd NE","City":" Atlanta","Zip":" 30322","Latitude":33.7689292,"Longitude":-84.33302}
{"Hospital":"Grady Health System","Phone Number":"(404) 616-1000","Street":"80 Jesse Hill Jr Dr SE","City":" Atlanta","Zip":" 30303","Latitude":null,"Longitude":null}
{"Hospital":"Emory - University Hospital","Phone Number":"(404) 712-2000","Street":"1364 Clifton Rd","City":" Atlanta","Zip":" 30322","Latitude":33.792151,"Longitude":-84.3220829137}
{"Hospital":"Eastside Medical Center","Phone Number":"(770) 979-0200","Street":"1700 Medical Way","City":" Snellville","Zip":" 30078","Latitude":33.8766816,"Longitude":-84.0215150287}
{"Hospital":"Northside - Atlanta Hospital","Phone Number":"(404) 851-8000","Street":"1000 Johnson Ferry Rd NE","City":" Atlanta","Zip":" 30342","Latitude":null,"Longitude":null}
{"Hospital":"Emory - Hillandale Hospital","Phone Number":"(404) 501-8000","Street":"2801 Dekalb Medical Pkwy","City":" Lithonia","Zip":" 30058","Latitude":33.7057912,"Longitude":-84.1483114409}
{"Hospital":"CHOA - Hughes Spalding","Phone Number":"(404) 785-5437","Street":"35 Jesse Hill Jr Dr SE","City":" Atlanta","Zip":" 30303","Latitude":null,"Longitude":null}
{"Hospital":"WellStar - AMC","Phone Number":"(404) 265-4000","Street":"303 Parkway Dr NE","City":" Atlanta","Zip":" 30312","Latitude":33.76285845,"Longitude":-84.3730967557}
{"Hospital":"Emory - St. Joseph's Hospital","Phone Number":"(678) 843-7001","Street":"5665 Peachtree Dunwoody Rd","City":" Atlanta","Zip":" 30342","Latitude":33.8553449,"Longitude":-84.3579913}
{"Hospital":"Southern Regional Medical Center","Phone Number":"(770) 991-8000","Street":"11 Upper Riverdale Rd","City":" Riverdale","Zip":" 30274","Latitude":33.57933265,"Longitude":-84.3895920046}
{"Hospital":"WellStar - AMC South","Phone Number":"(404) 466-1170","Street":"1170 Cleveland Ave","City":" Atlanta","Zip":" 30344","Latitude":null,"Longitude":null}
{"Hospital":"Emory - Decatur Hospital","Phone Number":"(404) 501-1000","Street":"2701 N Decatur Rd","City":" Decatur","Zip":" 30033","Latitude":33.7917584,"Longitude":-84.2981244}
{"Hospital":"Emory - University Hospital Midtown","Phone Number":"(404) 686-4411","Street":"550 Peachtree St NE","City":" Atlanta","Zip":" 30308","Latitude":33.77019035,"Longitude":-84.386279487}
{"Hospital":"Piedmont - Atlanta Hospital","Phone Number":"(404) 605-5000","Street":"1968 Peachtree Rd NW","City":" Atlanta","Zip":" 30309","Latitude":33.808554111,"Longitude":-84.3936393641}
{"Hospital":"WellStar - North Fulton Hospital","Phone Number":"(770) 751-2500","Street":"3000 Hospital Blvd","City":" Roswell","Zip":" 30076","Latitude":34.06313805,"Longitude":-84.3201691339}
{"Hospital":"Wellstar Cobb Hospital","Phone Number":"(470) 732-4000","Street":"3950 Austell Rd SW","City":" Austell","Zip":" 30106","Latitude":33.830145,"Longitude":-84.613367}
{"Hospital":"Wellstar Douglas Hospital","Phone Number":"(770) 949-1500","Street":"8954 Hospital Dr","City":" Douglasville","Zip":" 30134","Latitude":33.73890425,"Longitude":-84.7318192581}
{"Hospital":"Northside - Duluth Hospital","Phone Number":"(678) 312-6800","Street":"3620 Howell Ferry Rd NW","City":" Duluth","Zip":" 30096","Latitude":33.9997323299,"Longitude":-84.1671392161}
{"Hospital":"Northside - Gwinnett","Phone Number":"(678) 312-1000","Street":"1000 Medical Center Blvd","City":" Lawrenceville","Zip":" 30046","Latitude":33.96318035,"Longitude":-84.0169666556}
{"Hospital":"Emory - Johns Creek Hospital","Phone Number":"(678) 474-7000","Street":"6325 Hospital Pkwy","City":" Johns Creek","Zip":" 30097","Latitude":34.0668824,"Longitude":-84.1761616011}
{"Hospital":"WellStar Kennestone Hospital","Phone Number":"(770) 793-5000","Street":"677 Church St","City":" Marietta","Zip":" 30060","Latitude":33.96859775,"Longitude":-84.5529050297}
{"Hospital":"Atlanta VA Health Care System","Phone Number":"(404) 321-6111","Street":"1513 Cleveland Ave building 300","City":" East Point","Zip":" 30344","Latitude":null,"Longitude":null}
{"Hospital":"Piedmont - Newton Hospital","Phone Number":"(770) 786-7053","Street":"5126 Hospital Dr NE","City":" Covington","Zip":" 30014","Latitude":33.60140635,"Longitude":-83.8477615624}
{"Hospital":"CHOA - Scottish Rite","Phone Number":"(404) 785-5437","Street":"1001 Johnson Ferry Rd NE","City":" Atlanta","Zip":" 30342","Latitude":null,"Longitude":null}
{"Hospital":"Emory University Orthopaedics and Spine Hospital","Phone Number":"(404) 251-3000","Street":"1455 Montreal Rd E","City":" Tucker","Zip":" 30084","Latitude":33.8260142,"Longitude":-84.2478082}
{"Hospital":"GWCC ACF","Phone Number":"(404) 223-4000","Street":"285 Andrew Young International Blvd NW","City":" Atlanta","Zip":" 30313","Latitude":33.7581064124,"Longitude":-84.3966739418}
{"Hospital":"WellStar West Georgia Medical Center","Phone Number":"(706) 882-1411","Street":"1514 Vernon Rd","City":" LaGrange","Zip":" 30240","Latitude":33.0323566,"Longitude":-85.0586694144}
{"Hospital":"Piedmont Henry Hospital","Phone Number":"(678) 604-1000","Street":"1133 Eagle's Landing Parkway","City":" Stockbridge","Zip":" 30281","Latitude":33.5185389,"Longitude":-84.1976648}
{"Hospital":"Piedmont - Fayette Hospital","Phone Number":"(770) 719-7000","Street":"1255 Highway 54 West","City":" Fayetteville","Zip":" 30214","Latitude":null,"Longitude":null}
{"Hospital":"Piedmont Newnan","Phone Number":"(770) 400-1000","Street":"745 Poplar Rd","City":" Newnan","Zip":" 30265","Latitude":33.3575598,"Longitude":-84.7555704845}
{"Hospital":"WellStar Spalding Regional Hospital","Phone Number":"(770) 228-2721","Street":"601 S 8th St","City":" Griffin","Zip":" 30224","Latitude":33.23896225,"Longitude":-84.2672392499}
{"Hospital":"WellStar Sylvan Grove Hospital","Phone Number":"(770) 775-7861","Street":"1050 McDonough Rd","City":" Jackson","Zip":" 30233","Latitude":33.3034971332,"Longitude":-83.978657679}
{"Hospital":"Upson Regional Medical Center","Phone Number":"(706) 647-8111","Street":"801 W Gordon St","City":" Thomaston","Zip":" 30286","Latitude":32.88590945,"Longitude":-84.3363940917}
{"Hospital":"Tanner Medical Center Carrollton","Phone Number":"(770) 812-9666","Street":"705 Dixie St","City":" Carrollton","Zip":" 30117","Latitude":33.5697284,"Longitude":-85.07421665}
{"Hospital":"Tanner Medical Center Villa Rica","Phone Number":"(770) 812-3000","Street":"601 Dallas Hwy","City":" Villa Rica","Zip":" 30180","Latitude":33.74539685,"Longitude":-84.9164803348}
{"Hospital":"Warm Springs Medical Center","Phone Number":"(706) 655-3331","Street":"5995 Spring St","City":" Warm Springs","Zip":" 31830","Latitude":32.8898199,"Longitude":-84.6829839188}
{"Hospital":"Dodge County Hospital","Phone Number":"(478) 448-4000","Street":"901 Griffin Ave","City":" Eastman","Zip":" 31023","Latitude":32.1852265,"Longitude":-83.1778105536}
{"Hospital":"Fairview Park Hospital","Phone Number":"(478) 275-2000","Street":"200 Industrial Blvd","City":" Dublin","Zip":" 31021","Latitude":32.5320682,"Longitude":-82.9501670492}
{"Hospital":"Perry Hospital","Phone Number":"(478) 987-3600","Street":"1120 Morningside Dr","City":" Perry","Zip":" 31069","Latitude":32.45895995,"Longitude":-83.709725515}
{"Hospital":"Coliseum Northside Hospital","Phone Number":"(478) 757-8200","Street":"400 Charter Blvd","City":" Macon","Zip":" 31210","Latitude":32.87147215,"Longitude":-83.6944519163}
{"Hospital":"Coliseum Medical Center","Phone Number":"(478) 765-7000","Street":"350 Hospital Dr","City":" Macon","Zip":" 31217","Latitude":32.8466491,"Longitude":-83.6189575368}
{"Hospital":"Medical Center of Peach County","Phone Number":"(478) 654-2000","Street":"1960 GA-247CONN","City":" Byron","Zip":" 31008","Latitude":null,"Longitude":null}
{"Hospital":"Navicent Health Baldwin","Phone Number":"(478) 776-4000","Street":"821 N Cobb St","City":" Milledgeville","Zip":" 31061","Latitude":33.0896823,"Longitude":-83.2459231069}
{"Hospital":"Medical Center, Navicent Health","Phone Number":"(478) 633-1000","Street":"777 Hemlock St","City":" Macon","Zip":" 31201","Latitude":32.834028,"Longitude":-83.6362914}
{"Hospital":"Houston Medical Center","Phone Number":"(478) 922-4281","Street":"1601 Watson Blvd","City":" Warner Robins","Zip":" 31093","Latitude":32.6166157,"Longitude":-83.6307365412}
{"Hospital":"Taylor Regional Hospital","Phone Number":"(478) 783-0200","Street":"222 Perry Hwy","City":" Hawkinsville","Zip":" 31036","Latitude":32.29786495,"Longitude":-83.4847152589}
{"Hospital":"Jasper Memorial Hospital","Phone Number":"(706) 468-8826","Street":"898 College St","City":" Monticello","Zip":" 31064","Latitude":33.3144326,"Longitude":-83.6863431503}
{"Hospital":"Putnam General Hospital","Phone Number":"(706) 485-2711","Street":"101 Lake Oconee Pkwy","City":" Eatonton","Zip":" 31024","Latitude":null,"Longitude":null}
{"Hospital":"Monroe County Hospital","Phone Number":"(478) 994-2521","Street":"88 Martin Luther King Jr Dr","City":" Forsyth","Zip":" 31029","Latitude":33.03167095,"Longitude":-83.9455894929}
{"Hospital":"Washington County Regional Medical Center","Phone Number":"(478) 240-2000","Street":"610 Sparta Rd","City":" Sandersville","Zip":" 31082","Latitude":32.9955768,"Longitude":-82.8044346953}
{"Hospital":"Bleckley Memorial Hospital","Phone Number":"(478) 934-6211","Street":"145 Peacock St","City":" Cochran","Zip":" 31014","Latitude":32.3813766087,"Longitude":-83.3495365652}
{"Hospital":"Regency Hospital of Central Georgia","Phone Number":"(478) 633-8260","Street":"700 Spring St","City":" Macon","Zip":" 31201","Latitude":32.835286,"Longitude":-83.636908}
{"Hospital":"Burke Medical Center","Phone Number":"(706) 554-4435","Street":"351 S Liberty St","City":" Waynesboro","Zip":" 30830","Latitude":33.0837743846,"Longitude":-82.0119435385}
{"Hospital":"Doctors Hospital","Phone Number":"(706) 651-3232","Street":"3651 Wheeler Rd","City":" Augusta","Zip":" 30909","Latitude":33.4864304,"Longitude":-82.0945236419}
{"Hospital":"Augusta University Medical Center","Phone Number":"(706) 721-2273","Street":"1120 15th St","City":" Augusta","Zip":" 30912","Latitude":33.47110005,"Longitude":-81.9898167463}
{"Hospital":"Emanuel Medical Center","Phone Number":"(478) 289-1100","Street":"117 Kight Rd","City":" Swainsboro","Zip":" 30401","Latitude":null,"Longitude":null}
{"Hospital":"Jenkins County Medical Center","Phone Number":"(478) 982-4221","Street":"931 E Winthrope Ave","City":" Millen","Zip":" 30442","Latitude":32.8043291,"Longitude":-81.9345588}
{"Hospital":"University Hospital","Phone Number":"(706) 722-9011","Street":"1350 Walton Way","City":" Augusta","Zip":" 30901","Latitude":33.47126795,"Longitude":-81.9823733861}
{"Hospital":"University Hospital-Summerville","Phone Number":"(706) 481-7000","Street":"2260 Wrightsboro Rd","City":" Augusta","Zip":" 30904","Latitude":33.4663468,"Longitude":-82.017611379}
{"Hospital":"University Hospital-McDuffie","Phone Number":"(706) 595-1411","Street":"2460 Washington Rd","City":" Thomson","Zip":" 30824","Latitude":33.4941433,"Longitude":-82.5041773}
{"Hospital":"Optim Medical Screven","Phone Number":"(912) 564-7426","Street":"215 Mims Rd","City":" Sylvania","Zip":" 30467","Latitude":32.75004685,"Longitude":-81.6469616449}
{"Hospital":"Wills Memorial Hospital","Phone Number":"(706) 678-2151","Street":"120 Gordon St","City":" Washington","Zip":" 30673","Latitude":33.7285564,"Longitude":-82.7426976156}
{"Hospital":"Jefferson Hospital","Phone Number":"(478) 625-7000","Street":"1067 Peachtree St","City":" Louisville","Zip":" 30434","Latitude":33.0101744,"Longitude":-82.4055260834}
{"Hospital":"Piedmont Columbus Regional - Midtown Camp","Phone Number":"(706) 571-1000","Street":"710 Center St","City":" Columbus","Zip":" 31901","Latitude":32.48051245,"Longitude":-84.9818851369}
{"Hospital":"Piedmont Columbus Regional - Northside","Phone Number":"(706) 494-2100","Street":"100 Frist Ct","City":" Columbus","Zip":" 31909","Latitude":32.53497465,"Longitude":-84.9512247199}
{"Hospital":"St. Francis Hospital","Phone Number":"(706) 320-2739","Street":"2122 Manchester Expy","City":" Midland","Zip":" 31820","Latitude":null,"Longitude":null}
{"Hospital":"Flint River Hospital","Phone Number":"(478) 472-3100","Street":"509 Sumter St","City":" Montezuma","Zip":" 31063","Latitude":32.2949104,"Longitude":-84.0305651637}
{"Hospital":"Southwest Ga Regional Medical Center","Phone Number":"(229) 732-2181","Street":"361 Randolph St","City":" Cuthbert","Zip":" 39840","Latitude":31.77545205,"Longitude":-84.7936170581}
{"Hospital":"Miller County Hospital","Phone Number":"(229) 758-3304","Street":"208 N Cuthbert St","City":" Colquitt","Zip":" 39837","Latitude":31.1750039012,"Longitude":-84.7344591746}
{"Hospital":"Colquitt Regional Regional Medical Center","Phone Number":"(229) 985-3420","Street":"3131 S Main St","City":" Moultrie","Zip":" 31768","Latitude":31.12605395,"Longitude":-83.7803151768}
{"Hospital":"John D. Archbold Memorial Hospital","Phone Number":"(229) 228-2000","Street":"915 Gordon Ave","City":" Thomasville","Zip":" 31792","Latitude":30.825097,"Longitude":-83.973429}
{"Hospital":"Dorminy Medical Center","Phone Number":"(229) 424-7100","Street":"200 Perry House Rd","City":" Fitzgerald","Zip":" 31750","Latitude":31.69736595,"Longitude":-83.2599061811}
{"Hospital":"Crisp Regional Hospital","Phone Number":"(229) 276-3100","Street":"902 7th St N","City":" Cordele","Zip":" 31015","Latitude":31.97761035,"Longitude":-83.7812682697}
{"Hospital":"Tift Regional Medical Center","Phone Number":"(229) 382-7120","Street":"901 18th St","City":" Tifton","Zip":" 31794","Latitude":31.470054,"Longitude":-83.498312}
{"Hospital":"Phoebe Putney Memorial Hospital","Phone Number":"(229) 312-1000","Street":"417 W 3rd Ave","City":" Albany","Zip":" 31701","Latitude":31.59042535,"Longitude":-84.1575886701}
{"Hospital":"Phoebe Sumter Medical Center","Phone Number":"(229) 924-6011","Street":"126 US-280","City":" Americus","Zip":" 31719","Latitude":32.0713294914,"Longitude":-84.2469885227}
{"Hospital":"Memorial Hospital and Manor","Phone Number":"(229) 246-3500","Street":"1500 E Shotwell St","City":" Bainbridge","Zip":" 39819","Latitude":30.902932,"Longitude":-84.5522550998}
{"Hospital":"Grady General Hospital","Phone Number":"(404) 616-1000","Street":"80 Jesse Hill Jr Dr SE","City":" Atlanta","Zip":" 30303","Latitude":null,"Longitude":null}
{"Hospital":"South Georgia Medical Center","Phone Number":"(229) 433-1000","Street":"2501 N Patterson St","City":" Valdosta","Zip":" 31602","Latitude":30.8614322,"Longitude":-83.286626839}
{"Hospital":"Southwell Medical","Phone Number":"(229) 896-8000","Street":"260 M J Taylor Rd","City":" Adel","Zip":" 31620","Latitude":31.083056,"Longitude":-83.427137}
{"Hospital":"SGMC Lanier Campus","Phone Number":"(229) 433-8440","Street":"116 W Thigpen Ave","City":" Lakeland","Zip":" 31635","Latitude":31.04210655,"Longitude":-83.0863022834}
{"Hospital":"SGMC Berrien Campus","Phone Number":"(229) 433-8600","Street":"1221 E Mcpherson Ave","City":" Nashville","Zip":" 31639","Latitude":31.2026956,"Longitude":-83.2387083516}
{"Hospital":"Irwin County Hospital","Phone Number":"(229) 468-3800","Street":"710 N Irwin Ave","City":" Ocilla","Zip":" 31774","Latitude":31.60330305,"Longitude":-83.2513399769}
{"Hospital":"Phoebe Worth Medical Center","Phone Number":"(229) 776-6961","Street":"807 S Isabella St","City":" Sylvester","Zip":" 31791","Latitude":31.5140553,"Longitude":-83.8392788}
{"Hospital":"Phoebe Putney North","Phone Number":"(229) 434-2000","Street":"2000 Palmyra Rd","City":" Albany","Zip":" 31701","Latitude":31.6070142,"Longitude":-84.1696227624}
{"Hospital":"Mitchell County Hospital","Phone Number":"(229) 336-4600","Street":"90 E Stephens St","City":" Camilla","Zip":" 31730","Latitude":31.2295186,"Longitude":-84.2054408564}
{"Hospital":"Lifebrite Community Hospital of Early","Phone Number":"(229) 723-4241","Street":"11740 Columbia Street","City":" Blakely","Zip":" 39823","Latitude":null,"Longitude":null}
{"Hospital":"Donalsonville Hospital","Phone Number":"(229) 524-5217","Street":"102 N Wiley Ave","City":" Donalsonville","Zip":" 39845","Latitude":31.0511806,"Longitude":-84.8812745078}
{"Hospital":"Brooks County Hospital","Phone Number":"(229) 263-4171","Street":"903 N Court St","City":" Quitman","Zip":" 31643","Latitude":30.79517535,"Longitude":-83.5590306267}
{"Hospital":"Evans Memorial Hospital","Phone Number":"(912) 739-5000","Street":"200 N River St","City":" Claxton","Zip":" 30417","Latitude":32.1662577,"Longitude":-81.89895937}
{"Hospital":"Memorial Satilla Health","Phone Number":"(912) 283-3030","Street":"1900 Tebeau St","City":" Waycross","Zip":" 31501","Latitude":31.22425015,"Longitude":-82.3478955441}
{"Hospital":"Bacon County Hospital","Phone Number":"(912) 632-8961","Street":"302 S Wayne St","City":" Alma","Zip":" 31510","Latitude":31.5391683,"Longitude":-82.4581429048}
{"Hospital":"Jeff Davis Hospital","Phone Number":"(912) 375-7781","Street":"163 S Tallahassee St","City":" Hazlehurst","Zip":" 31539","Latitude":31.85720295,"Longitude":-82.6070982256}
{"Hospital":"Optim Medical Tattnall","Phone Number":"(912) 557-1000","Street":"247 S Main St","City":" Reidsville","Zip":" 30453","Latitude":32.080061,"Longitude":-82.1088808647}
{"Hospital":"East Georgia Regional Medical Center","Phone Number":"(912) 486-1000","Street":"1499 Fair Rd","City":" Statesboro","Zip":" 30458","Latitude":32.41478795,"Longitude":-81.7703609621}
{"Hospital":"Memorial Health University Medical Center","Phone Number":"(912) 350-8000","Street":"4700 Waters Ave","City":" Savannah","Zip":" 31404","Latitude":32.03124685,"Longitude":-81.0883514296}
{"Hospital":"Wayne Memorial Hospital","Phone Number":"(912) 427-6811","Street":"865 S 1st St","City":" Jesup","Zip":" 31545","Latitude":31.6008496,"Longitude":-81.9002610442}
{"Hospital":"Coffee Regional Medical Center","Phone Number":"(912) 384-1900","Street":"1101 Ocilla Rd","City":" Douglas","Zip":" 31533","Latitude":31.51083115,"Longitude":-82.864112609}
{"Hospital":"Clinch Memorial Hospital","Phone Number":"(912) 487-5211","Street":"1050 Valdosta Hwy","City":" Homerville","Zip":" 31634","Latitude":31.03392255,"Longitude":-82.7644291939}
{"Hospital":"Appling Healthcare","Phone Number":"(912) 367-9841","Street":"163 E Tollison St","City":" Baxley","Zip":" 31513","Latitude":31.7695680714,"Longitude":-82.3505393571}
{"Hospital":"Effingham Health System","Phone Number":"(912) 754-6451","Street":"459 GA-119","City":" Springfield","Zip":" 31329","Latitude":32.3640153,"Longitude":-81.320902175}
{"Hospital":"Liberty Regional Medical Center","Phone Number":"(912) 369-9400","Street":"462 Elma G Miles Pkwy","City":" Hinesville","Zip":" 31313","Latitude":31.84006965,"Longitude":-81.6012875122}
{"Hospital":"Meadows Regional Medical Center","Phone Number":"(912) 535-5555","Street":"1 Meadows Pkwy","City":" Vidalia","Zip":" 30474","Latitude":null,"Longitude":null}
{"Hospital":"St. Joseph's Hospital","Phone Number":"(912) 819-4100","Street":"11705 Mercy Boulevard","City":" Savannah","Zip":" 31419","Latitude":31.98593,"Longitude":-81.1551023751}
{"Hospital":"Southeast Georgia Health System St Marys","Phone Number":"(912) 576-6200","Street":"2000 Dan Proctor Dr","City":" St Marys","Zip":" 31558","Latitude":30.7809652,"Longitude":-81.6146147979}
{"Hospital":"Southeast Georgia Health System Brunswick","Phone Number":"(912) 466-7000","Street":"2415 Parkwood Dr","City":" Brunswick","Zip":" 31520","Latitude":31.17576015,"Longitude":-81.4848252864}
{"Hospital":"St. Joseph's Candler Hospital","Phone Number":"(912) 369-3954","Street":"5353 Reynolds St.","City":" Savannah","Zip":" 31405","Latitude":32.0277204,"Longitude":-81.1002568}
{"Hospital":"Fort Stewart Winn Army","Phone Number":"(912) 435-6633","Street":"1061 Harmon Ave","City":" Fort Stewart","Zip":" 31314","Latitude":31.8720935,"Longitude":-81.6006048346}
{"Hospital":"Candler County Hospital - Metter","Phone Number":"(912) 685-5741","Street":"400 Cedar St","City":" Metter","Zip":" 30439","Latitude":32.4069858,"Longitude":-82.065633879}
{"Hospital":"Piedmont Rockdale","Phone Number":"(770) 918-3000","Street":"1412 Milstead Ave NE","City":" Conyers","Zip":" 30012","Latitude":33.68112045,"Longitude":-84.0017009137}
{"Hospital":"Piedmont Athens Regional Medical Center","Phone Number":"(706) 475-7000","Street":"1199 Prince Ave","City":" Athens","Zip":" 30606","Latitude":33.96067055,"Longitude":-83.3994482397}
{"Hospital":"St. Marys Hospital","Phone Number":"(706) 389-3000","Street":"1230 Baxter St","City":" Athens","Zip":" 30606","Latitude":33.94745715,"Longitude":-83.4052960369}
{"Hospital":"NGMC Barrow","Phone Number":"(770) 867-3400","Street":"316 N Broad St","City":" Winder","Zip":" 30680","Latitude":34.00742665,"Longitude":-83.7076404712}
{"Hospital":"Elbert Memorial Hospital","Phone Number":"(706) 283-3151","Street":"4 Medical Dr","City":" Elberton","Zip":" 30635","Latitude":34.11364035,"Longitude":-82.8750238024}
{"Hospital":"St. Marys Good Samaritan Hospital","Phone Number":"(706) 453-7331","Street":"5401 Lake Oconee Pkwy","City":" Greensboro","Zip":" 30642","Latitude":33.540433,"Longitude":-83.209813}
{"Hospital":"Morgan Medical Center","Phone Number":"(706) 342-1667","Street":"1740 Lions Club Rd","City":" Madison","Zip":" 30650","Latitude":33.5702383,"Longitude":-83.4662502}
{"Hospital":"Piedmont Walton Hospital","Phone Number":"(770) 267-8461","Street":"2151 W Spring St","City":" Monroe","Zip":" 30655","Latitude":33.7989942,"Longitude":-83.750001906}
{"Hospital":"Northridge Medical Center","Phone Number":"(706) 335-1000","Street":"70 Medical Center Dr","City":" Commerce","Zip":" 30529","Latitude":40.7592125,"Longitude":-73.5031251}
{"Hospital":"Charlie Norwood VA Medical Center","Phone Number":"(706) 733-0188","Street":"1 Freedom Way","City":" Augusta","Zip":" 30904","Latitude":33.4644372,"Longitude":-82.0273580292}